{"type": "FeatureCollection", "features": [ {"type": "Feature", "properties": {"norad_id": 34058, "name": "COSMOS 2251 DEB", "group": "cosmos-2251-debris", "lat": 37.47495462998333, "lon": -32.6820223137747, "alt_km": 772.5916378554675, "timestamp": "2025-12-23T20:42:37.469667+00:00", "meta": {"OBJECT_NAME": "COSMOS 2251 DEB", "OBJECT_ID": "1993-036JV", "EPOCH": "2025-12-23T04:56:38.920128", "MEAN_MOTION": 13.56091905, "ECCENTRICITY": 0.03774788, "INCLINATION": 73.9315, "RA_OF_ASC_NODE": 161.1476, "ARG_OF_PERICENTER": 154.3942, "MEAN_ANOMALY": 21.2674, "EPHEMERIS_TYPE": 0, "CLASSIFICATION_TYPE": "U", "NORAD_CAT_ID": 34058, "ELEMENT_SET_NO": 999, "REV_AT_EPOCH": 83284, "BSTAR": 0.00067969496, "MEAN_MOTION_DOT": 7.34e-06, "MEAN_MOTION_DDOT": 0}, "tle": {"line1": "1 34058U 93036JV  25357.20600602  .00000734  00000+0  67969-3 0  9992", "line2": "2 34058  73.9315 161.1476 0377478 154.3942  21.2674 13.56091905832846"}}, "geometry": {"type": "Point", "coordinates": [-32.6820223137747, 37.47495462998333]}}, {"type": "Feature", "properties": {"norad_id": 34059, "name": "COSMOS 2251 DEB", "group": "cosmos-2251-debris", "lat": -71.8829196538232, "lon": 104.26470755323014, "alt_km": 712.3628416768042, "timestamp": "2025-12-23T20:42:37.469678+00:00", "meta": {"OBJECT_NAME": "COSMOS 2251 DEB", "OBJECT_ID": "1993-036JW", "EPOCH": "2025-12-23T05:22:22.507968", "MEAN_MOTION": 14.53006192, "ECCENTRICITY": 0.00184175, "INCLINATION": 74.037, "RA_OF_ASC_NODE": 166.4975, "ARG_OF_PERICENTER": 242.8415, "MEAN_ANOMALY": 294.2544, "EPHEMERIS_TYPE": 0, "CLASSIFICATION_TYPE": "U", "NORAD_CAT_ID": 34059, "ELEMENT_SET_NO": 999, "REV_AT_EPOCH": 88611, "BSTAR": 0.00078324971, "MEAN_MOTION_DOT": 3.213e-05, "MEAN_MOTION_DDOT": 0}, "tle": {"line1": "1 34059U 93036JW  25357.22387162  .00003213  00000+0  78325-3 0  9991", "line2": "2 34059  74.0370 166.4975 0018417 242.8415 294.2544 14.53006192886114"}}, "geometry": {"type": "Point", "coordinates": [104.26470755323014, -71.8829196538232]}}, {"type": "Feature", "properties": {"norad_id": 34061, "name": "COSMOS 2251 DEB", "group": "cosmos-2251-debris", "lat": 55.318517795973335, "lon": 38.39750039430649, "alt_km": 765.8616075109385, "timestamp": "2025-12-23T20:42:37.469688+00:00", "meta": {"OBJECT_NAME": "COSMOS 2251 DEB", "OBJECT_ID": "1993-036JY", "EPOCH": "2025-12-23T04:12:26.443584", "MEAN_MOTION": 14.40377763, "ECCENTRICITY": 0.00208519, "INCLINATION": 74.0387, "RA_OF_ASC_NODE": 244.1, "ARG_OF_PERICENTER": 319.5068, "MEAN_ANOMALY": 197.413, "EPHEMERIS_TYPE": 0, "CLASSIFICATION_TYPE": "U", "NORAD_CAT_ID": 34061, "ELEMENT_SET_NO": 999, "REV_AT_EPOCH": 88330, "BSTAR": 0.00027185319, "MEAN_MOTION_DOT": 8.38e-06, "MEAN_MOTION_DDOT": 0}, "tle": {"line1": "1 34061U 93036JY  25357.17530606  .00000838  00000+0  27185-3 0  9999", "line2": "2 34061  74.0387 244.1000 0020851 319.5068 197.4130 14.40377763883303"}}, "geometry": {"type": "Point", "coordinates": [38.39750039430649, 55.318517795973335]}}, {"type": "Feature", "properties": {"norad_id": 34062, "name": "COSMOS 2251 DEB", "group": "cosmos-2251-debris", "lat": -16.906665144089747, "lon": 111.15973793936593, "alt_km": 680.9059827870251, "timestamp": "2025-12-23T20:42:37.469698+00:00", "meta": {"OBJECT_NAME": "COSMOS 2251 DEB", "OBJECT_ID": "1993-036JZ", "EPOCH": "2025-12-23T02:06:26.881632", "MEAN_MOTION": 14.79056755, "ECCENTRICITY": 0.00732261, "INCLINATION": 74.0286, "RA_OF_ASC_NODE": 117.6784, "ARG_OF_PERICENTER": 194.7008, "MEAN_ANOMALY": 341.8356, "EPHEMERIS_TYPE": 0, "CLASSIFICATION_TYPE": "U", "NORAD_CAT_ID": 34062, "ELEMENT_SET_NO": 999, "REV_AT_EPOCH": 88748, "BSTAR": 0.0028791317, "MEAN_MOTION_DOT": 0.00022324, "MEAN_MOTION_DDOT": 0}, "tle": {"line1": "1 34062U 93036JZ  25357.08781113  .00022324  00000+0  28791-2 0  9998", "line2": "2 34062  74.0286 117.6784 0073226 194.7008 341.8356 14.79056755887481"}}, "geometry": {"type": "Point", "coordinates": [111.15973793936593, -16.906665144089747]}}, {"type": "Feature", "properties": {"norad_id": 34064, "name": "COSMOS 2251 DEB", "group": "cosmos-2251-debris", "lat": 5.61053229657971, "lon": 68.6211933823819, "alt_km": 764.9355078511417, "timestamp": "2025-12-23T20:42:37.469709+00:00", "meta": {"OBJECT_NAME": "COSMOS 2251 DEB", "OBJECT_ID": "1993-036KB", "EPOCH": "2025-12-23T03:57:35.154144", "MEAN_MOTION": 14.42371122, "ECCENTRICITY": 0.00223844, "INCLINATION": 74.0319, "RA_OF_ASC_NODE": 251.5274, "ARG_OF_PERICENTER": 316.6321, "MEAN_ANOMALY": 194.9451, "EPHEMERIS_TYPE": 0, "CLASSIFICATION_TYPE": "U", "NORAD_CAT_ID": 34064, "ELEMENT_SET_NO": 999, "REV_AT_EPOCH": 88292, "BSTAR": 0.00043700396, "MEAN_MOTION_DOT": 1.422e-05, "MEAN_MOTION_DDOT": 0}, "tle": {"line1": "1 34064U 93036KB  25357.16499021  .00001422  00000+0  43700-3 0  9997", "line2": "2 34064  74.0319 251.5274 0022384 316.6321 194.9451 14.42371122882929"}}, "geometry": {"type": "Point", "coordinates": [68.6211933823819, 5.61053229657971]}}, {"type": "Feature", "properties": {"norad_id": 34065, "name": "COSMOS 2251 DEB", "group": "cosmos-2251-debris", "lat": 15.285155987104517, "lon": -117.87959767045875, "alt_km": 756.4930199296332, "timestamp": "2025-12-23T20:42:37.469719+00:00", "meta": {"OBJECT_NAME": "COSMOS 2251 DEB", "OBJECT_ID": "1993-036KC", "EPOCH": "2025-12-23T02:58:45.188832", "MEAN_MOTION": 14.38073241, "ECCENTRICITY": 0.00167831, "INCLINATION": 74.0351, "RA_OF_ASC_NODE": 238.9937, "ARG_OF_PERICENTER": 334.7432, "MEAN_ANOMALY": 177.8771, "EPHEMERIS_TYPE": 0, "CLASSIFICATION_TYPE": "U", "NORAD_CAT_ID": 34065, "ELEMENT_SET_NO": 999, "REV_AT_EPOCH": 88354, "BSTAR": 0.00015064138, "MEAN_MOTION_DOT": 4.31e-06, "MEAN_MOTION_DDOT": 0}, "tle": {"line1": "1 34065U 93036KC  25357.12413413  .00000431  00000+0  15064-3 0  9996", "line2": "2 34065  74.0351 238.9937 0016783 334.7432 177.8771 14.38073241883541"}}, "geometry": {"type": "Point", "coordinates": [-117.87959767045875, 15.285155987104517]}}, {"type": "Feature", "properties": {"norad_id": 34070, "name": "COSMOS 2251 DEB", "group": "cosmos-2251-debris", "lat": 24.575428783846416, "lon": 101.94673872682914, "alt_km": 649.1847501190532, "timestamp": "2025-12-23T20:42:37.469729+00:00", "meta": {"OBJECT_NAME": "COSMOS 2251 DEB", "OBJECT_ID": "1993-036KH", "EPOCH": "2025-12-22T15:38:32.154720", "MEAN_MOTION": 14.77337567, "ECCENTRICITY": 0.00180188, "INCLINATION": 74.0018, "RA_OF_ASC_NODE": 96.7871, "ARG_OF_PERICENTER": 213.8845, "MEAN_ANOMALY": 212.8999, "EPHEMERIS_TYPE": 0, "CLASSIFICATION_TYPE": "U", "NORAD_CAT_ID": 34070, "ELEMENT_SET_NO": 999, "REV_AT_EPOCH": 88757, "BSTAR": 0.0026236661, "MEAN_MOTION_DOT": 0.0001871, "MEAN_MOTION_DDOT": 0}, "tle": {"line1": "1 34070U 93036KH  25356.65176105  .00018710  00000+0  26237-2 0  9995", "line2": "2 34070  74.0018  96.7871 0018018 213.8845 212.8999 14.77337567887578"}}, "geometry": {"type": "Point", "coordinates": [101.94673872682914, 24.575428783846416]}}, {"type": "Feature", "properties": {"norad_id": 34114, "name": "COSMOS 2251 DEB", "group": "cosmos-2251-debris", "lat": 52.9294505447722, "lon": -179.4767744905356, "alt_km": 710.6889785431704, "timestamp": "2025-12-23T20:42:37.469739+00:00", "meta": {"OBJECT_NAME": "COSMOS 2251 DEB", "OBJECT_ID": "1993-036KK", "EPOCH": "2025-12-22T11:42:10.189152", "MEAN_MOTION": 14.5649918, "ECCENTRICITY": 0.0047962, "INCLINATION": 74.0581, "RA_OF_ASC_NODE": 25.3598, "ARG_OF_PERICENTER": 16.6596, "MEAN_ANOMALY": 98.2642, "EPHEMERIS_TYPE": 0, "CLASSIFICATION_TYPE": "U", "NORAD_CAT_ID": 34114, "ELEMENT_SET_NO": 999, "REV_AT_EPOCH": 87943, "BSTAR": 0.0016510078, "MEAN_MOTION_DOT": 7.437e-05, "MEAN_MOTION_DDOT": 0}, "tle": {"line1": "1 34114U 93036KK  25356.48761793  .00007437  00000+0  16510-2 0  9995", "line2": "2 34114  74.0581  25.3598 0047962  16.6596  98.2642 14.56499180879432"}}, "geometry": {"type": "Point", "coordinates": [-179.4767744905356, 52.9294505447722]}}, {"type": "Feature", "properties": {"norad_id": 34115, "name": "COSMOS 2251 DEB", "group": "cosmos-2251-debris", "lat": 71.73482767317385, "lon": -79.63720279297033, "alt_km": 607.8363277576473, "timestamp": "2025-12-23T20:42:37.469750+00:00", "meta": {"OBJECT_NAME": "COSMOS 2251 DEB", "OBJECT_ID": "1993-036KL", "EPOCH": "2025-12-22T08:38:51.353376", "MEAN_MOTION": 14.79607286, "ECCENTRICITY": 0.00289645, "INCLINATION": 74.0053, "RA_OF_ASC_NODE": 222.9719, "ARG_OF_PERICENTER": 43.6291, "MEAN_ANOMALY": 316.7168, "EPHEMERIS_TYPE": 0, "CLASSIFICATION_TYPE": "U", "NORAD_CAT_ID": 34115, "ELEMENT_SET_NO": 999, "REV_AT_EPOCH": 89554, "BSTAR": 0.0009465402, "MEAN_MOTION_DOT": 7.118e-05, "MEAN_MOTION_DDOT": 0}, "tle": {"line1": "1 34115U 93036KL  25356.36031659  .00007118  00000+0  94654-3 0  9996", "line2": "2 34115  74.0053 222.9719 0028964  43.6291 316.7168 14.79607286895544"}}, "geometry": {"type": "Point", "coordinates": [-79.63720279297033, 71.73482767317385]}}, {"type": "Feature", "properties": {"norad_id": 34116, "name": "COSMOS 2251 DEB", "group": "cosmos-2251-debris", "lat": 57.91814651576322, "lon": -171.0410208929271, "alt_km": 718.154101817955, "timestamp": "2025-12-23T20:42:37.469760+00:00", "meta": {"OBJECT_NAME": "COSMOS 2251 DEB", "OBJECT_ID": "1993-036KM", "EPOCH": "2025-12-22T21:50:50.707104", "MEAN_MOTION": 14.5303332, "ECCENTRICITY": 0.0011799, "INCLINATION": 74.0395, "RA_OF_ASC_NODE": 163.5912, "ARG_OF_PERICENTER": 239.6052, "MEAN_ANOMALY": 241.1776, "EPHEMERIS_TYPE": 0, "CLASSIFICATION_TYPE": "U", "NORAD_CAT_ID": 34116, "ELEMENT_SET_NO": 999, "REV_AT_EPOCH": 88634, "BSTAR": 0.00081214, "MEAN_MOTION_DOT": 3.33e-05, "MEAN_MOTION_DDOT": 0}, "tle": {"line1": "1 34116U 93036KM  25356.91030911  .00003330  00000+0  81214-3 0  9998", "line2": "2 34116  74.0395 163.5912 0011799 239.6052 241.1776 14.53033320886347"}}, "geometry": {"type": "Point", "coordinates": [-171.0410208929271, 57.91814651576322]}}]}